ONEWEB-0555             
1 56057U 23043M   25257.03430226 -.00000001  00000+0 -37361-4 0  9992
2 56057  87.8982 283.8075 0002497  96.7639 263.3776 13.16595976122621
ONEWEB-0557             
1 56058U 23043N   25257.04856438  .00000050  00000+0  98422-4 0  9998
2 56058  87.8971 283.8228 0003036  77.4973 282.6498 13.16593915122623
ONEWEB-0558             
1 56059U 23043P   25257.07506771  .00000115  00000+0  24579-3 0  9997
2 56059  87.9206 299.0878 0001565 104.4355 255.6953 13.21824831121766
ONEWEB-0559             
1 56060U 23043Q   25256.83694488  .00000061  00000+0  11623-3 0  9991
2 56060  87.9209 299.1279 0001580  90.7348 269.3967 13.21826337121741
ONEWEB-0566             
1 56061U 23043R   25257.13341853  .00000025  00000+0  29967-4 0  9992
2 56061  87.9207 299.0663 0001608  97.9493 262.1824 13.21827031121764
ONEWEB-0568             
1 56062U 23043S   25256.98998708  .00000102  00000+0  23276-3 0  9994
2 56062  87.8985 283.8143 0002205  95.9552 264.1830 13.16594489122637
ONEWEB-0574             
1 56063U 23043T   25256.82433844 -.00000027  00000+0 -96071-4 0  9995
2 56063  87.9207 299.1164 0002034  89.9728 270.1639 13.21825639121764
ONEWEB-0575             
1 56064U 23043U   25257.05964163  .00000069  00000+0  14654-3 0  9995
2 56064  87.8979 283.8045 0002308  86.4812 273.6583 13.16594777122631
ONEWEB-0576             
1 56065U 23043V   25256.58466630 -.00000031  00000+0 -11533-3 0  9993
2 56065  87.8992 283.8941 0002126  93.8514 266.2860 13.16594244122568
ONEWEB-0577             
1 56066U 23043W   25257.04698152  .00000053  00000+0  10533-3 0  9993
2 56066  87.8988 283.8029 0002425  81.6572 278.4834 13.16593685122656
ONEWEB-0578             
1 56067U 23043X   25256.88741352 -.00000031  00000+0 -10587-3 0  9993
2 56067  87.9204 299.1137 0002161  97.9768 262.1611 13.21825536121733
ONEWEB-0579             
1 56068U 23043Y   25256.65086204  .00000017  00000+0  89535-5 0  9990
2 56068  87.9207 299.1474 0001646  91.1077 269.0245 13.21825021121713
ONEWEB-0581             
1 56069U 23043Z   25257.05330753  .00000033  00000+0  53874-4 0  9991
2 56069  87.8970 283.8211 0002061  80.3415 279.7949 13.16595259122628
ONEWEB-0609             
1 56070U 23043AA  25257.17172692  .00000033  00000+0  53573-4 0  9998
2 56070  87.9036 314.2941 0001843  99.2897 260.8442 13.15550022120145
ONEWEB-0613             
1 56071U 23043AB  25257.16695405  .00000021  00000+0  22610-4 0  9995
2 56071  87.9035 314.3090 0001648  93.6371 266.4948 13.15549161120144
ONEWEB-0630             
1 56072U 23043AC  25257.16220608  .00000121  00000+0  28825-3 0  9999
2 56072  87.9032 314.2830 0001577  97.9500 262.1810 13.15549253120137
ONEWEB-0632             
1 56073U 23043AD  25257.15744267  .00000163  00000+0  40007-3 0  9993
2 56073  87.9028 314.3041 0001895  90.7002 269.4345 13.15550123120130
