[{"OBJECT_NAME":"ONEWEB-0555","OBJECT_ID":"2023-043M","EPOCH":"2025-09-14T00:49:23.715264","MEAN_MOTION":13.16595976,"ECCENTRICITY":0.00024976,"INCLINATION":87.8982,"RA_OF_ASC_NODE":283.8075,"ARG_OF_PERICENTER":96.7639,"MEAN_ANOMALY":263.3776,"EPHEMERIS_TYPE":0,"CLASSIFICATION_TYPE":"U","NORAD_CAT_ID":56057,"ELEMENT_SET_NO":999,"REV_AT_EPOCH":12262,"BSTAR":-3.7360945e-5,"MEAN_MOTION_DOT":-1.0e-8,"MEAN_MOTION_DDOT":0},{"OBJECT_NAME":"ONEWEB-0557","OBJECT_ID":"2023-043N","EPOCH":"2025-09-14T01:09:55.962432","MEAN_MOTION":13.16593915,"ECCENTRICITY":0.00030369,"INCLINATION":87.8971,"RA_OF_ASC_NODE":283.8228,"ARG_OF_PERICENTER":77.4973,"MEAN_ANOMALY":282.6498,"EPHEMERIS_TYPE":0,"CLASSIFICATION_TYPE":"U","NORAD_CAT_ID":56058,"ELEMENT_SET_NO":999,"REV_AT_EPOCH":12262,"BSTAR":9.842228e-5,"MEAN_MOTION_DOT":5.0e-7,"MEAN_MOTION_DDOT":0},{"OBJECT_NAME":"ONEWEB-0558","OBJECT_ID":"2023-043P","EPOCH":"2025-09-14T01:48:05.850144","MEAN_MOTION":13.21824831,"ECCENTRICITY":0.00015651,"INCLINATION":87.9206,"RA_OF_ASC_NODE":299.0878,"ARG_OF_PERICENTER":104.4355,"MEAN_ANOMALY":255.6953,"EPHEMERIS_TYPE":0,"CLASSIFICATION_TYPE":"U","NORAD_CAT_ID":56059,"ELEMENT_SET_NO":999,"REV_AT_EPOCH":12176,"BSTAR":0.00024579493,"MEAN_MOTION_DOT":1.15e-6,"MEAN_MOTION_DDOT":0},{"OBJECT_NAME":"ONEWEB-0559","OBJECT_ID":"2023-043Q","EPOCH":"2025-09-13T20:05:12.037632","MEAN_MOTION":13.21826337,"ECCENTRICITY":0.00015803,"INCLINATION":87.9209,"RA_OF_ASC_NODE":299.1279,"ARG_OF_PERICENTER":90.7348,"MEAN_ANOMALY":269.3967,"EPHEMERIS_TYPE":0,"CLASSIFICATION_TYPE":"U","NORAD_CAT_ID":56060,"ELEMENT_SET_NO":999,"REV_AT_EPOCH":12174,"BSTAR":0.00011623148,"MEAN_MOTION_DOT":6.1e-7,"MEAN_MOTION_DDOT":0},{"OBJECT_NAME":"ONEWEB-0566","OBJECT_ID":"2023-043R","EPOCH":"2025-09-14T03:12:07.360992","MEAN_MOTION":13.21827031,"ECCENTRICITY":0.00016086,"INCLINATION":87.9207,"RA_OF_ASC_NODE":299.0663,"ARG_OF_PERICENTER":97.9493,"MEAN_ANOMALY":262.1824,"EPHEMERIS_TYPE":0,"CLASSIFICATION_TYPE":"U","NORAD_CAT_ID":56061,"ELEMENT_SET_NO":999,"REV_AT_EPOCH":12176,"BSTAR":2.9967275e-5,"MEAN_MOTION_DOT":2.5e-7,"MEAN_MOTION_DDOT":0},{"OBJECT_NAME":"ONEWEB-0568","OBJECT_ID":"2023-043S","EPOCH":"2025-09-13T23:45:34.883712","MEAN_MOTION":13.16594489,"ECCENTRICITY":0.0002205,"INCLINATION":87.8985,"RA_OF_ASC_NODE":283.8143,"ARG_OF_PERICENTER":95.9552,"MEAN_ANOMALY":264.183,"EPHEMERIS_TYPE":0,"CLASSIFICATION_TYPE":"U","NORAD_CAT_ID":56062,"ELEMENT_SET_NO":999,"REV_AT_EPOCH":12263,"BSTAR":0.00023276447,"MEAN_MOTION_DOT":1.02e-6,"MEAN_MOTION_DDOT":0},{"OBJECT_NAME":"ONEWEB-0574","OBJECT_ID":"2023-043T","EPOCH":"2025-09-13T19:47:02.841216","MEAN_MOTION":13.21825639,"ECCENTRICITY":0.00020344,"INCLINATION":87.9207,"RA_OF_ASC_NODE":299.1164,"ARG_OF_PERICENTER":89.9728,"MEAN_ANOMALY":270.1639,"EPHEMERIS_TYPE":0,"CLASSIFICATION_TYPE":"U","NORAD_CAT_ID":56063,"ELEMENT_SET_NO":999,"REV_AT_EPOCH":12176,"BSTAR":-9.6070918e-5,"MEAN_MOTION_DOT":-2.7e-7,"MEAN_MOTION_DDOT":0},{"OBJECT_NAME":"ONEWEB-0575","OBJECT_ID":"2023-043U","EPOCH":"2025-09-14T01:25:53.036832","MEAN_MOTION":13.16594777,"ECCENTRICITY":0.00023086,"INCLINATION":87.8979,"RA_OF_ASC_NODE":283.8045,"ARG_OF_PERICENTER":86.4812,"MEAN_ANOMALY":273.6583,"EPHEMERIS_TYPE":0,"CLASSIFICATION_TYPE":"U","NORAD_CAT_ID":56064,"ELEMENT_SET_NO":999,"REV_AT_EPOCH":12263,"BSTAR":0.00014653759,"MEAN_MOTION_DOT":6.9e-7,"MEAN_MOTION_DDOT":0},{"OBJECT_NAME":"ONEWEB-0576","OBJECT_ID":"2023-043V","EPOCH":"2025-09-13T14:01:55.168320","MEAN_MOTION":13.16594244,"ECCENTRICITY":0.00021268,"INCLINATION":87.8992,"RA_OF_ASC_NODE":283.8941,"ARG_OF_PERICENTER":93.8514,"MEAN_ANOMALY":266.286,"EPHEMERIS_TYPE":0,"CLASSIFICATION_TYPE":"U","NORAD_CAT_ID":56065,"ELEMENT_SET_NO":999,"REV_AT_EPOCH":12256,"BSTAR":-0.0001153283,"MEAN_MOTION_DOT":-3.1e-7,"MEAN_MOTION_DDOT":0},{"OBJECT_NAME":"ONEWEB-0577","OBJECT_ID":"2023-043W","EPOCH":"2025-09-14T01:07:39.203328","MEAN_MOTION":13.16593685,"ECCENTRICITY":0.00024251,"INCLINATION":87.8988,"RA_OF_ASC_NODE":283.8029,"ARG_OF_PERICENTER":81.6572,"MEAN_ANOMALY":278.4834,"EPHEMERIS_TYPE":0,"CLASSIFICATION_TYPE":"U","NORAD_CAT_ID":56066,"ELEMENT_SET_NO":999,"REV_AT_EPOCH":12265,"BSTAR":0.00010532655,"MEAN_MOTION_DOT":5.3e-7,"MEAN_MOTION_DDOT":0},{"OBJECT_NAME":"ONEWEB-0578","OBJECT_ID":"2023-043X","EPOCH":"2025-09-13T21:17:52.528128","MEAN_MOTION":13.21825536,"ECCENTRICITY":0.00021616,"INCLINATION":87.9204,"RA_OF_ASC_NODE":299.1137,"ARG_OF_PERICENTER":97.9768,"MEAN_ANOMALY":262.1611,"EPHEMERIS_TYPE":0,"CLASSIFICATION_TYPE":"U","NORAD_CAT_ID":56067,"ELEMENT_SET_NO":999,"REV_AT_EPOCH":12173,"BSTAR":-0.00010587342,"MEAN_MOTION_DOT":-3.1e-7,"MEAN_MOTION_DDOT":0},{"OBJECT_NAME":"ONEWEB-0579","OBJECT_ID":"2023-043Y","EPOCH":"2025-09-13T15:37:14.480256","MEAN_MOTION":13.21825021,"ECCENTRICITY":0.00016465,"INCLINATION":87.9207,"RA_OF_ASC_NODE":299.1474,"ARG_OF_PERICENTER":91.1077,"MEAN_ANOMALY":269.0245,"EPHEMERIS_TYPE":0,"CLASSIFICATION_TYPE":"U","NORAD_CAT_ID":56068,"ELEMENT_SET_NO":999,"REV_AT_EPOCH":12171,"BSTAR":8.953475e-6,"MEAN_MOTION_DOT":1.7e-7,"MEAN_MOTION_DDOT":0},{"OBJECT_NAME":"ONEWEB-0581","OBJECT_ID":"2023-043Z","EPOCH":"2025-09-14T01:16:45.770592","MEAN_MOTION":13.16595259,"ECCENTRICITY":0.00020612,"INCLINATION":87.897,"RA_OF_ASC_NODE":283.8211,"ARG_OF_PERICENTER":80.3415,"MEAN_ANOMALY":279.7949,"EPHEMERIS_TYPE":0,"CLASSIFICATION_TYPE":"U","NORAD_CAT_ID":56069,"ELEMENT_SET_NO":999,"REV_AT_EPOCH":12262,"BSTAR":5.3873771e-5,"MEAN_MOTION_DOT":3.3e-7,"MEAN_MOTION_DDOT":0},{"OBJECT_NAME":"ONEWEB-0609","OBJECT_ID":"2023-043AA","EPOCH":"2025-09-14T04:07:17.205888","MEAN_MOTION":13.15550022,"ECCENTRICITY":0.00018436,"INCLINATION":87.9036,"RA_OF_ASC_NODE":314.2941,"ARG_OF_PERICENTER":99.2897,"MEAN_ANOMALY":260.8442,"EPHEMERIS_TYPE":0,"CLASSIFICATION_TYPE":"U","NORAD_CAT_ID":56070,"ELEMENT_SET_NO":999,"REV_AT_EPOCH":12014,"BSTAR":5.3573497e-5,"MEAN_MOTION_DOT":3.3e-7,"MEAN_MOTION_DDOT":0},{"OBJECT_NAME":"ONEWEB-0613","OBJECT_ID":"2023-043AB","EPOCH":"2025-09-14T04:00:24.829920","MEAN_MOTION":13.15549161,"ECCENTRICITY":0.00016484,"INCLINATION":87.9035,"RA_OF_ASC_NODE":314.309,"ARG_OF_PERICENTER":93.6371,"MEAN_ANOMALY":266.4948,"EPHEMERIS_TYPE":0,"CLASSIFICATION_TYPE":"U","NORAD_CAT_ID":56071,"ELEMENT_SET_NO":999,"REV_AT_EPOCH":12014,"BSTAR":2.2610141e-5,"MEAN_MOTION_DOT":2.1e-7,"MEAN_MOTION_DDOT":0},{"OBJECT_NAME":"ONEWEB-0630","OBJECT_ID":"2023-043AC","EPOCH":"2025-09-14T03:53:34.605312","MEAN_MOTION":13.15549253,"ECCENTRICITY":0.00015774,"INCLINATION":87.9032,"RA_OF_ASC_NODE":314.283,"ARG_OF_PERICENTER":97.95,"MEAN_ANOMALY":262.181,"EPHEMERIS_TYPE":0,"CLASSIFICATION_TYPE":"U","NORAD_CAT_ID":56072,"ELEMENT_SET_NO":999,"REV_AT_EPOCH":12013,"BSTAR":0.00028825427,"MEAN_MOTION_DOT":1.21e-6,"MEAN_MOTION_DDOT":0},{"OBJECT_NAME":"ONEWEB-0632","OBJECT_ID":"2023-043AD","EPOCH":"2025-09-14T03:46:43.046688","MEAN_MOTION":13.15550123,"ECCENTRICITY":0.00018951,"INCLINATION":87.9028,"RA_OF_ASC_NODE":314.3041,"ARG_OF_PERICENTER":90.7002,"MEAN_ANOMALY":269.4345,"EPHEMERIS_TYPE":0,"CLASSIFICATION_TYPE":"U","NORAD_CAT_ID":56073,"ELEMENT_SET_NO":999,"REV_AT_EPOCH":12013,"BSTAR":0.00040007007,"MEAN_MOTION_DOT":1.63e-6,"MEAN_MOTION_DDOT":0}]
